ONEWEB-0431             
1 51630U 22012J   24055.45926082  .00000250  00000+0  67972-3 0  9994
2 51630  87.8942 203.8826 0001040  77.8715 282.2529 13.10375321 98849
ONEWEB-0434             
1 51631U 22012K   24055.43664149 -.00000619  00000+0 -18082-2 0  9994
2 51631  87.8947 203.8947 0001747  95.2363 264.8963 13.10373824 98828
ONEWEB-0436             
1 51633U 22012M   24055.56222279  .00000046  00000+0  85515-4 0  9993
2 51633  87.9257 173.6572 0001850  99.4391 260.6950 13.17650050102580
ONEWEB-0438             
1 51634U 22012N   24055.42851888 -.00000428  00000+0 -12629-2 0  9993
2 51634  87.8943 203.8871 0001783 106.6150 253.5173 13.10371607 98841
ONEWEB-0439             
1 51635U 22012P   24055.43176703 -.00000526  00000+0 -15437-2 0  9990
2 51635  87.8945 203.8703 0001545 101.4056 258.7245 13.10372247 98828
ONEWEB-0443             
1 51637U 22012R   24055.57329734  .00000039  00000+0  66934-4 0  9998
2 51637  87.9260 173.6917 0002173  97.0561 263.0818 13.17649533102622
